[{"OBJECT_NAME":"STARLINK-34781","OBJECT_ID":"2025-165T","EPOCH":"2026-03-09T19:25:09.117120","MEAN_MOTION":15.05647045,"ECCENTRICITY":0.00010435,"INCLINATION":97.6023,"RA_OF_ASC_NODE":147.4275,"ARG_OF_PERICENTER":112.58,"MEAN_ANOMALY":247.5538,"EPHEMERIS_TYPE":0,"CLASSIFICATION_TYPE":"U","NORAD_CAT_ID":65073,"ELEMENT_SET_NO":999,"REV_AT_EPOCH":3481,"BSTAR":0.00036232994,"MEAN_MOTION_DOT":5.171e-5,"MEAN_MOTION_DDOT":0},{"OBJECT_NAME":"DIAMANT DEB","OBJECT_ID":"1967-014C","EPOCH":"2026-03-07T10:00:52.471872","MEAN_MOTION":14.08335033,"ECCENTRICITY":0.04404535,"INCLINATION":39.955,"RA_OF_ASC_NODE":162.5873,"ARG_OF_PERICENTER":146.5113,"MEAN_ANOMALY":216.4329,"EPHEMERIS_TYPE":0,"CLASSIFICATION_TYPE":"U","NORAD_CAT_ID":2684,"ELEMENT_SET_NO":999,"REV_AT_EPOCH":92662,"BSTAR":0.001598728,"MEAN_MOTION_DOT":6.727e-5,"MEAN_MOTION_DDOT":0}]
